{
  "type": "FeatureCollection",
  "features": [
    {
      "type": "Feature",
      "properties": {
        "norad_id": 35022,
        "name": "COSMOS 2251 DEB",
        "group": "cosmos-2251-debris",
        "lat": 30.093208248303455,
        "lon": -21.976989915317223,
        "alt_km": 713.2545143016905,
        "timestamp": "2025-12-09T07:41:33.607509+00:00",
        "meta_object_name": "COSMOS 2251 DEB",
        "meta_object_id": "1993-036AGK",
        "meta_epoch": "2025-12-08T16:45:20.077920",
        "meta_mean_motion": 14.60807192,
        "meta_eccentricity": 0.00469926,
        "meta_inclination": 74.0257,
        "meta_ra_of_asc_node": 329.6569,
        "meta_arg_of_pericenter": 170.8022,
        "meta_mean_anomaly": 189.4016,
        "meta_ephemeris_type": 0,
        "meta_classification_type": "U",
        "meta_norad_cat_id": 35022,
        "meta_element_set_no": 999,
        "meta_rev_at_epoch": 59084,
        "meta_bstar": 0.00059201522,
        "meta_mean_motion_dot": 2.907e-05,
        "meta_mean_motion_ddot": 0,
        "tle_line1": "1 35022U 93036AGK 25342.69814905  .00002907  00000+0  59202-3 0  9999",
        "tle_line2": "2 35022  74.0257 329.6569 0046992 170.8022 189.4016 14.60807192590842"
      },
      "geometry": {
        "type": "Point",
        "coordinates": [
          -21.976989915317223,
          30.093208248303455
        ]
      }
    },
    {
      "type": "Feature",
      "properties": {
        "norad_id": 35023,
        "name": "COSMOS 2251 DEB",
        "group": "cosmos-2251-debris",
        "lat": 32.41998905629239,
        "lon": 29.008441739887704,
        "alt_km": 601.3386477526465,
        "timestamp": "2025-12-09T07:41:33.607519+00:00",
        "meta_object_name": "COSMOS 2251 DEB",
        "meta_object_id": "1993-036AGL",
        "meta_epoch": "2025-12-08T02:41:00.136032",
        "meta_mean_motion": 14.9487588,
        "meta_eccentricity": 0.0034242,
        "meta_inclination": 74.0379,
        "meta_ra_of_asc_node": 221.9179,
        "meta_arg_of_pericenter": 300.5938,
        "meta_mean_anomaly": 183.4537,
        "meta_ephemeris_type": 0,
        "meta_classification_type": "U",
        "meta_norad_cat_id": 35023,
        "meta_element_set_no": 999,
        "meta_rev_at_epoch": 88210,
        "meta_bstar": 0.0020271261,
        "meta_mean_motion_dot": 0.00022391,
        "meta_mean_motion_ddot": 0,
        "tle_line1": "1 35023U 93036AGL 25342.11180713  .00022391  00000+0  20271-2 0  9992",
        "tle_line2": "2 35023  74.0379 221.9179 0034242 300.5938 183.4537 14.94875880882103"
      },
      "geometry": {
        "type": "Point",
        "coordinates": [
          29.008441739887704,
          32.41998905629239
        ]
      }
    },
    {
      "type": "Feature",
      "properties": {
        "norad_id": 35025,
        "name": "COSMOS 2251 DEB",
        "group": "cosmos-2251-debris",
        "lat": 41.96201828115403,
        "lon": -125.38806831282687,
        "alt_km": 701.7433291772686,
        "timestamp": "2025-12-09T07:41:33.607530+00:00",
        "meta_object_name": "COSMOS 2251 DEB",
        "meta_object_id": "1993-036AGN",
        "meta_epoch": "2025-12-08T22:55:37.574400",
        "meta_mean_motion": 14.72677529,
        "meta_eccentricity": 0.00849923,
        "meta_inclination": 73.9387,
        "meta_ra_of_asc_node": 70.3412,
        "meta_arg_of_pericenter": 343.9938,
        "meta_mean_anomaly": 15.8549,
        "meta_ephemeris_type": 0,
        "meta_classification_type": "U",
        "meta_norad_cat_id": 35025,
        "meta_element_set_no": 999,
        "meta_rev_at_epoch": 88587,
        "meta_bstar": 0.00047907867,
        "meta_mean_motion_dot": 3.199e-05,
        "meta_mean_motion_ddot": 0,
        "tle_line1": "1 35025U 93036AGN 25342.95529600  .00003199  00000+0  47908-3 0  9990",
        "tle_line2": "2 35025  73.9387  70.3412 0084992 343.9938  15.8549 14.72677529885870"
      },
      "geometry": {
        "type": "Point",
        "coordinates": [
          -125.38806831282687,
          41.96201828115403
        ]
      }
    },
    {
      "type": "Feature",
      "properties": {
        "norad_id": 35026,
        "name": "COSMOS 2251 DEB",
        "group": "cosmos-2251-debris",
        "lat": -56.829182364309844,
        "lon": 171.2112714860051,
        "alt_km": 775.5987073931683,
        "timestamp": "2025-12-09T07:41:33.607540+00:00",
        "meta_object_name": "COSMOS 2251 DEB",
        "meta_object_id": "1993-036AGP",
        "meta_epoch": "2025-12-07T08:39:39.055680",
        "meta_mean_motion": 14.53618214,
        "meta_eccentricity": 0.00822584,
        "meta_inclination": 74.0464,
        "meta_ra_of_asc_node": 328.9566,
        "meta_arg_of_pericenter": 83.9333,
        "meta_mean_anomaly": 345.4639,
        "meta_ephemeris_type": 0,
        "meta_classification_type": "U",
        "meta_norad_cat_id": 35026,
        "meta_element_set_no": 999,
        "meta_rev_at_epoch": 88065,
        "meta_bstar": 0.00012037639,
        "meta_mean_motion_dot": 4.97e-06,
        "meta_mean_motion_ddot": 0,
        "tle_line1": "1 35026U 93036AGP 25341.36086870  .00000497  00000+0  12038-3 0  9996",
        "tle_line2": "2 35026  74.0464 328.9566 0082258  83.9333 345.4639 14.53618214880652"
      },
      "geometry": {
        "type": "Point",
        "coordinates": [
          171.2112714860051,
          -56.829182364309844
        ]
      }
    },
    {
      "type": "Feature",
      "properties": {
        "norad_id": 35028,
        "name": "COSMOS 2251 DEB",
        "group": "cosmos-2251-debris",
        "lat": -42.38834555371167,
        "lon": -97.67358531154592,
        "alt_km": 716.7884939433761,
        "timestamp": "2025-12-09T07:41:33.607550+00:00",
        "meta_object_name": "COSMOS 2251 DEB",
        "meta_object_id": "1993-036AGR",
        "meta_epoch": "2025-12-06T14:45:20.784960",
        "meta_mean_motion": 14.56559763,
        "meta_eccentricity": 0.00822588,
        "meta_inclination": 74.0381,
        "meta_ra_of_asc_node": 282.6027,
        "meta_arg_of_pericenter": 57.9846,
        "meta_mean_anomaly": 116.6366,
        "meta_ephemeris_type": 0,
        "meta_classification_type": "U",
        "meta_norad_cat_id": 35028,
        "meta_element_set_no": 999,
        "meta_rev_at_epoch": 88196,
        "meta_bstar": 0.00020909724,
        "meta_mean_motion_dot": 9.44e-06,
        "meta_mean_motion_ddot": 0,
        "tle_line1": "1 35028U 93036AGR 25340.61482390  .00000944  00000+0  20910-3 0  9997",
        "tle_line2": "2 35028  74.0381 282.6027 0082258  57.9846 116.6366 14.56559763881966"
      },
      "geometry": {
        "type": "Point",
        "coordinates": [
          -97.67358531154592,
          -42.38834555371167
        ]
      }
    },
    {
      "type": "Feature",
      "properties": {
        "norad_id": 35031,
        "name": "COSMOS 2251 DEB",
        "group": "cosmos-2251-debris",
        "lat": 73.79525187527197,
        "lon": 5.5556561646564955,
        "alt_km": 757.4366263647689,
        "timestamp": "2025-12-09T07:41:33.607560+00:00",
        "meta_object_name": "COSMOS 2251 DEB",
        "meta_object_id": "1993-036AGU",
        "meta_epoch": "2025-12-08T11:13:55.739136",
        "meta_mean_motion": 14.3828637,
        "meta_eccentricity": 0.00186752,
        "meta_inclination": 74.0383,
        "meta_ra_of_asc_node": 267.1323,
        "meta_arg_of_pericenter": 1.498,
        "meta_mean_anomaly": 358.6226,
        "meta_ephemeris_type": 0,
        "meta_classification_type": "U",
        "meta_norad_cat_id": 35031,
        "meta_element_set_no": 999,
        "meta_rev_at_epoch": 65222,
        "meta_bstar": 0.00036337037,
        "meta_mean_motion_dot": 1.081e-05,
        "meta_mean_motion_ddot": 0,
        "tle_line1": "1 35031U 93036AGU 25342.46800624  .00001081  00000+0  36337-3 0  9993",
        "tle_line2": "2 35031  74.0383 267.1323 0018675   1.4980 358.6226 14.38286370652223"
      },
      "geometry": {
        "type": "Point",
        "coordinates": [
          5.5556561646564955,
          73.79525187527197
        ]
      }
    },
    {
      "type": "Feature",
      "properties": {
        "norad_id": 35032,
        "name": "COSMOS 2251 DEB",
        "group": "cosmos-2251-debris",
        "lat": 61.757242201591694,
        "lon": 46.50601507276017,
        "alt_km": 736.435847153205,
        "timestamp": "2025-12-09T07:41:33.607570+00:00",
        "meta_object_name": "COSMOS 2251 DEB",
        "meta_object_id": "1993-036AGV",
        "meta_epoch": "2025-12-08T10:16:25.052736",
        "meta_mean_motion": 14.58667988,
        "meta_eccentricity": 0.00686543,
        "meta_inclination": 73.852,
        "meta_ra_of_asc_node": 15.5821,
        "meta_arg_of_pericenter": 227.6381,
        "meta_mean_anomaly": 194.5927,
        "meta_ephemeris_type": 0,
        "meta_classification_type": "U",
        "meta_norad_cat_id": 35032,
        "meta_element_set_no": 999,
        "meta_rev_at_epoch": 87611,
        "meta_bstar": 0.0012369703,
        "meta_mean_motion_dot": 5.93e-05,
        "meta_mean_motion_ddot": 0,
        "tle_line1": "1 35032U 93036AGV 25342.42806774  .00005930  00000+0  12370-2 0  9999",
        "tle_line2": "2 35032  73.8520  15.5821 0068654 227.6381 194.5927 14.58667988876112"
      },
      "geometry": {
        "type": "Point",
        "coordinates": [
          46.50601507276017,
          61.757242201591694
        ]
      }
    }
  ]
}